start=new Date('2021-09-27T00:00:00.000Z').valueOf();
sats=[{"EPOCH":"2021-09-26T09:20:57.621120","NORAD_CAT_ID":"47650","CLASSIFICATION_TYPE":"U","TLE_LINE2":"2 47650  53.0551 147.8770 0002096  76.0305 284.0917 15.06396780 35289","EPHEMERIS_TYPE":"0","PERIOD":"95.592","ELEMENT_SET_NO":"999","MEAN_MOTION_DOT":"0.00001687","TLE_LINE1":"1 47650U 21012AG  21269.38955580  .00001687  00000-0  13214-3 0  9997","COUNTRY_CODE":"US","MEAN_ANOMALY":"284.0917","CENTER_NAME":"EARTH","RCS_SIZE":"LARGE","OBJECT_ID":"2021-012AG","BSTAR":"0.00013214000000","INCLINATION":"53.0551","PERIAPSIS":"545.772","DECAY_DATE":null,"OBJECT_TYPE":"PAYLOAD","SEMIMAJOR_AXIS":"6925.358","TIME_SYSTEM":"UTC","OBJECT_NAME":"STARLINK-2033","ECCENTRICITY":"0.00020960","FILE":"3129258","SITE":"AFETR","APOAPSIS":"548.675","RA_OF_ASC_NODE":"147.8770","REV_AT_EPOCH":"3528","GP_ID":"185551068","ARG_OF_PERICENTER":"76.0305","MEAN_ELEMENT_THEORY":"SGP4","MEAN_MOTION":"15.06396780","MEAN_MOTION_DDOT":"0.0000000000000","REF_FRAME":"TEME","LAUNCH_DATE":"2021-02-16"},{"REV_AT_EPOCH":"3502","GP_ID":"185550819","APOAPSIS":"548.611","RA_OF_ASC_NODE":"167.7229","SITE":"AFETR","FILE":"3129258","ECCENTRICITY":"0.00020130","OBJECT_NAME":"STARLINK-2035","TIME_SYSTEM":"UTC","DECAY_DATE":null,"SEMIMAJOR_AXIS":"6925.352","OBJECT_TYPE":"PAYLOAD","PERIAPSIS":"545.823","INCLINATION":"53.0569","BSTAR":"0.00007048600000","OBJECT_ID":"2021-012AH","MEAN_ANOMALY":"284.7260","COUNTRY_CODE":"US","CENTER_NAME":"EARTH","RCS_SIZE":"LARGE","TLE_LINE1":"1 47651U 21012AH  21269.42362513  .00000768  00000-0  70486-4 0  9995","ELEMENT_SET_NO":"999","MEAN_MOTION_DOT":"0.00000768","CLASSIFICATION_TYPE":"U","TLE_LINE2":"2 47651  53.0569 167.7229 0002013  75.3953 284.7260 15.06398789 35020","EPHEMERIS_TYPE":"0","PERIOD":"95.592","EPOCH":"2021-09-26T10:10:01.211232","NORAD_CAT_ID":"47651","LAUNCH_DATE":"2021-02-16","REF_FRAME":"TEME","MEAN_MOTION_DDOT":"0.0000000000000","MEAN_MOTION":"15.06398789","MEAN_ELEMENT_THEORY":"SGP4","ARG_OF_PERICENTER":"75.3953"},{"APOAPSIS":"548.539","RA_OF_ASC_NODE":"167.5975","SITE":"AFETR","FILE":"3129258","REV_AT_EPOCH":"3502","GP_ID":"185552070","DECAY_DATE":null,"SEMIMAJOR_AXIS":"6925.320","OBJECT_TYPE":"PAYLOAD","PERIAPSIS":"545.832","ECCENTRICITY":"0.00019550","TIME_SYSTEM":"UTC","OBJECT_NAME":"STARLINK-2036","OBJECT_ID":"2021-012AJ","BSTAR":"0.00015529000000","COUNTRY_CODE":"US","MEAN_ANOMALY":"283.8040","CENTER_NAME":"EARTH","RCS_SIZE":"LARGE","INCLINATION":"53.0543","CLASSIFICATION_TYPE":"U","TLE_LINE2":"2 47652  53.0543 167.5975 0001955  76.3167 283.8040 15.06409157 35029","EPHEMERIS_TYPE":"0","PERIOD":"95.592","EPOCH":"2021-09-26T10:48:32.454432","NORAD_CAT_ID":"47652","TLE_LINE1":"1 47652U 21012AJ  21269.45037563  .00002033  00000-0  15529-3 0  9996","ELEMENT_SET_NO":"999","MEAN_MOTION_DOT":"0.00002033","LAUNCH_DATE":"2021-02-16","REF_FRAME":"TEME","MEAN_ELEMENT_THEORY":"SGP4","MEAN_MOTION":"15.06409157","MEAN_MOTION_DDOT":"0.0000000000000","ARG_OF_PERICENTER":"76.3167"},{"PERIAPSIS":"545.718","DECAY_DATE":null,"OBJECT_TYPE":"PAYLOAD","SEMIMAJOR_AXIS":"6925.369","OBJECT_NAME":"STARLINK-2037","TIME_SYSTEM":"UTC","ECCENTRICITY":"0.00021900","SITE":"AFETR","FILE":"3129258","APOAPSIS":"548.751","RA_OF_ASC_NODE":"147.9213","REV_AT_EPOCH":"3528","GP_ID":"185551821","EPOCH":"2021-09-26T09:05:02.287680","NORAD_CAT_ID":"47653","EPHEMERIS_TYPE":"0","TLE_LINE2":"2 47653  53.0541 147.9213 0002190  69.1152 291.0071 15.06393248 35287","CLASSIFICATION_TYPE":"U","PERIOD":"95.593","ELEMENT_SET_NO":"999","MEAN_MOTION_DOT":"0.00000089","TLE_LINE1":"1 47653U 21012AK  21269.37849870  .00000089  00000-0  24885-4 0  9995","MEAN_ANOMALY":"291.0071","COUNTRY_CODE":"US","CENTER_NAME":"EARTH","RCS_SIZE":"LARGE","OBJECT_ID":"2021-012AK","BSTAR":"0.00002488500000","INCLINATION":"53.0541","MEAN_ELEMENT_THEORY":"SGP4","MEAN_MOTION":"15.06393248","MEAN_MOTION_DDOT":"0.0000000000000","REF_FRAME":"TEME","LAUNCH_DATE":"2021-02-16","ARG_OF_PERICENTER":"69.1152"},{"MEAN_MOTION":"15.06406680","MEAN_ELEMENT_THEORY":"SGP4","MEAN_MOTION_DDOT":"0.0000000000000","LAUNCH_DATE":"2021-02-16","REF_FRAME":"TEME","ARG_OF_PERICENTER":"69.5283","OBJECT_TYPE":"PAYLOAD","SEMIMAJOR_AXIS":"6925.328","DECAY_DATE":null,"PERIAPSIS":"545.906","ECCENTRICITY":"0.00018580","TIME_SYSTEM":"UTC","OBJECT_NAME":"STARLINK-2038","RA_OF_ASC_NODE":"167.5720","APOAPSIS":"548.480","SITE":"AFETR","FILE":"3129326","GP_ID":"185554412","REV_AT_EPOCH":"3450","PERIOD":"95.592","TLE_LINE2":"2 47654  53.0548 167.5720 0001858  69.5283 290.5905 15.06406680 34504","EPHEMERIS_TYPE":"0","CLASSIFICATION_TYPE":"U","NORAD_CAT_ID":"47654","EPOCH":"2021-09-26T10:53:50.026272","TLE_LINE1":"1 47654U 21012AL  21269.45405123  .00001170  00000-0  97438-4 0  9990","MEAN_MOTION_DOT":"0.00001170","ELEMENT_SET_NO":"999","OBJECT_ID":"2021-012AL","BSTAR":"0.00009743800000","CENTER_NAME":"EARTH","RCS_SIZE":"LARGE","MEAN_ANOMALY":"290.5905","COUNTRY_CODE":"US","INCLINATION":"53.0548"},{"LAUNCH_DATE":"2021-02-16","REF_FRAME":"TEME","MEAN_MOTION_DDOT":"0.0000000000000","MEAN_ELEMENT_THEORY":"SGP4","MEAN_MOTION":"15.06398367","ARG_OF_PERICENTER":"80.8728","REV_AT_EPOCH":"3502","GP_ID":"185551319","APOAPSIS":"548.628","RA_OF_ASC_NODE":"167.6136","SITE":"AFETR","FILE":"3129258","ECCENTRICITY":"0.00020350","TIME_SYSTEM":"UTC","OBJECT_NAME":"STARLINK-2039","DECAY_DATE":null,"SEMIMAJOR_AXIS":"6925.354","OBJECT_TYPE":"PAYLOAD","PERIAPSIS":"545.809","INCLINATION":"53.0550","OBJECT_ID":"2021-012AM","BSTAR":"0.00003529900000","COUNTRY_CODE":"US","MEAN_ANOMALY":"279.2491","RCS_SIZE":"LARGE","CENTER_NAME":"EARTH","TLE_LINE1":"1 47655U 21012AM  21269.44668555  .00000244  00000-0  35299-4 0  9998","ELEMENT_SET_NO":"999","MEAN_MOTION_DOT":"0.00000244","TLE_LINE2":"2 47655  53.0550 167.6136 0002035  80.8728 279.2491 15.06398367 35022","CLASSIFICATION_TYPE":"U","EPHEMERIS_TYPE":"0","PERIOD":"95.592","EPOCH":"2021-09-26T10:43:13.631520","NORAD_CAT_ID":"47655"},{"ARG_OF_PERICENTER":"73.9228","MEAN_MOTION_DDOT":"0.0000000000000","MEAN_MOTION":"15.06394663","MEAN_ELEMENT_THEORY":"SGP4","LAUNCH_DATE":"2021-02-16","REF_FRAME":"TEME","TLE_LINE1":"1 47656U 21012AN  21269.39693020  .00000305  00000-0  39366-4 0  9995","ELEMENT_SET_NO":"999","MEAN_MOTION_DOT":"0.00000305","EPHEMERIS_TYPE":"0","TLE_LINE2":"2 47656  53.0550 147.8299 0002127  73.9228 286.1996 15.06394663 35294","CLASSIFICATION_TYPE":"U","PERIOD":"95.592","EPOCH":"2021-09-26T09:31:34.769280","NORAD_CAT_ID":"47656","INCLINATION":"53.0550","BSTAR":"0.00003936600000","OBJECT_ID":"2021-012AN","COUNTRY_CODE":"US","MEAN_ANOMALY":"286.1996","RCS_SIZE":"MEDIUM","CENTER_NAME":"EARTH","ECCENTRICITY":"0.00021270","TIME_SYSTEM":"UTC","OBJECT_NAME":"STARLINK-2040","DECAY_DATE":null,"OBJECT_TYPE":"PAYLOAD","SEMIMAJOR_AXIS":"6925.365","PERIAPSIS":"545.757","REV_AT_EPOCH":"3529","GP_ID":"185551571","APOAPSIS":"548.703","RA_OF_ASC_NODE":"147.8299","SITE":"AFETR","FILE":"3129258"},{"REF_FRAME":"TEME","LAUNCH_DATE":"2021-02-16","MEAN_ELEMENT_THEORY":"SGP4","MEAN_MOTION":"15.06403777","MEAN_MOTION_DDOT":"0.0000000000000","ARG_OF_PERICENTER":"80.2045","SITE":"AFETR","FILE":"3129258","APOAPSIS":"548.665","RA_OF_ASC_NODE":"169.6106","REV_AT_EPOCH":"3495","GP_ID":"185552321","PERIAPSIS":"545.739","DECAY_DATE":null,"SEMIMAJOR_AXIS":"6925.337","OBJECT_TYPE":"PAYLOAD","TIME_SYSTEM":"UTC","OBJECT_NAME":"STARLINK-2041","ECCENTRICITY":"0.00021130","MEAN_ANOMALY":"279.9182","COUNTRY_CODE":"US","CENTER_NAME":"EARTH","RCS_SIZE":"LARGE","BSTAR":"0.00003236800000","OBJECT_ID":"2021-012AP","INCLINATION":"53.0540","EPOCH":"2021-09-26T00:06:18.196992","NORAD_CAT_ID":"47657","EPHEMERIS_TYPE":"0","TLE_LINE2":"2 47657  53.0540 169.6106 0002113  80.2045 279.9182 15.06403777 34952","CLASSIFICATION_TYPE":"U","PERIOD":"95.592","ELEMENT_SET_NO":"999","MEAN_MOTION_DOT":"0.00000200","TLE_LINE1":"1 47657U 21012AP  21269.00437728  .00000200  00000-0  32368-4 0  9994"},{"ARG_OF_PERICENTER":"79.0260","MEAN_ELEMENT_THEORY":"SGP4","MEAN_MOTION":"15.06402049","MEAN_MOTION_DDOT":"0.0000000000000","LAUNCH_DATE":"2021-02-16","REF_FRAME":"TEME","CLASSIFICATION_TYPE":"U","TLE_LINE2":"2 47658  53.0542 167.5567 0001863  79.0260 281.0938 15.06402049 35044","EPHEMERIS_TYPE":"0","PERIOD":"95.592","EPOCH":"2021-09-26T11:04:27.333408","NORAD_CAT_ID":"47658","TLE_LINE1":"1 47658U 21012AQ  21269.46142747  .00000050  00000-0  22291-4 0  9996","ELEMENT_SET_NO":"999","MEAN_MOTION_DOT":"0.00000050","BSTAR":"0.00002229100000","OBJECT_ID":"2021-012AQ","COUNTRY_CODE":"US","MEAN_ANOMALY":"281.0938","CENTER_NAME":"EARTH","RCS_SIZE":"LARGE","INCLINATION":"53.0542","DECAY_DATE":null,"OBJECT_TYPE":"PAYLOAD","SEMIMAJOR_AXIS":"6925.342","PERIAPSIS":"545.917","ECCENTRICITY":"0.00018630","OBJECT_NAME":"STARLINK-2042","TIME_SYSTEM":"UTC","APOAPSIS":"548.497","RA_OF_ASC_NODE":"167.5567","FILE":"3129258","SITE":"AFETR","REV_AT_EPOCH":"3504","GP_ID":"185551069"},{"MEAN_MOTION":"15.73220573","MEAN_ELEMENT_THEORY":"SGP4","MEAN_MOTION_DDOT":"0.0000000000000","REF_FRAME":"TEME","LAUNCH_DATE":"2021-02-16","ARG_OF_PERICENTER":"359.3421","PERIAPSIS":"346.726","DECAY_DATE":null,"SEMIMAJOR_AXIS":"6727.837","OBJECT_TYPE":"PAYLOAD","OBJECT_NAME":"STARLINK-2043","TIME_SYSTEM":"UTC","ECCENTRICITY":"0.00044230","SITE":"AFETR","FILE":"3129566","APOAPSIS":"352.677","RA_OF_ASC_NODE":"73.8288","REV_AT_EPOCH":"367","GP_ID":"185582970","EPOCH":"2021-09-27T00:00:00.999648","NORAD_CAT_ID":"47659","TLE_LINE2":"2 47659  53.0422  73.8288 0004423 359.3421  22.9807 15.73220573  3674","EPHEMERIS_TYPE":"0","CLASSIFICATION_TYPE":"U","PERIOD":"91.532","ELEMENT_SET_NO":"999","MEAN_MOTION_DOT":"0.00013676","TLE_LINE1":"1 47659U 21012AR  21270.00001157  .00013676  00000-0  10158-3 0  9994","MEAN_ANOMALY":"22.9807","COUNTRY_CODE":"US","RCS_SIZE":"LARGE","CENTER_NAME":"EARTH","OBJECT_ID":"2021-012AR","BSTAR":"0.00010158000000","INCLINATION":"53.0422"}];
